[{"OBJECT_NAME":"STARLINK-35707","OBJECT_ID":"2025-265T","EPOCH":"2026-03-09T22:52:31.893888","MEAN_MOTION":15.27597655,"ECCENTRICITY":0.00023383,"INCLINATION":43.0035,"RA_OF_ASC_NODE":276.451,"ARG_OF_PERICENTER":244.6941,"MEAN_ANOMALY":115.3669,"EPHEMERIS_TYPE":0,"CLASSIFICATION_TYPE":"U","NORAD_CAT_ID":66533,"ELEMENT_SET_NO":999,"REV_AT_EPOCH":1715,"BSTAR":0.0012111947,"MEAN_MOTION_DOT":0.00033237,"MEAN_MOTION_DDOT":0},{"OBJECT_NAME":"KUIPER-00226","OBJECT_ID":"2026-030X","EPOCH":"2026-03-09T15:01:51.726432","MEAN_MOTION":15.30655594,"ECCENTRICITY":0.0017713,"INCLINATION":51.8814,"RA_OF_ASC_NODE":220.1252,"ARG_OF_PERICENTER":64.2781,"MEAN_ANOMALY":296.003,"EPHEMERIS_TYPE":0,"CLASSIFICATION_TYPE":"U","NORAD_CAT_ID":67785,"ELEMENT_SET_NO":999,"REV_AT_EPOCH":507,"BSTAR":0.001553,"MEAN_MOTION_DOT":0.00046834,"MEAN_MOTION_DDOT":0}]
